CCSDS_OMM_VERS = 2.0
CREATION_DATE  = 
ORIGINATOR     = 

OBJECT_NAME    = STARLINK-36576
OBJECT_ID      = 2026-014C
CENTER_NAME    = EARTH
REF_FRAME      = TEME
TIME_SYSTEM    = UTC
MEAN_ELEMENT_THEORY = SGP/SGP4

EPOCH          = 2026-02-18T04:00:01.999584
MEAN_MOTION    = 15.75215582
ECCENTRICITY   = .0001373
INCLINATION    = 97.2833
RA_OF_ASC_NODE = 293.1422
ARG_OF_PERICENTER = 101.5491
MEAN_ANOMALY   = 140.0524

EPHEMERIS_TYPE = 0
CLASSIFICATION_TYPE = U
NORAD_CAT_ID   = 67534
ELEMENT_SET_NO = 999
REV_AT_EPOCH   = 555
BSTAR          = -.30623E-3
MEAN_MOTION_DOT = -.45613E-3
MEAN_MOTION_DDOT = 0

CCSDS_OMM_VERS = 2.0
CREATION_DATE  = 
ORIGINATOR     = 

OBJECT_NAME    = STARLINK-36574
OBJECT_ID      = 2026-014D
CENTER_NAME    = EARTH
REF_FRAME      = TEME
TIME_SYSTEM    = UTC
MEAN_ELEMENT_THEORY = SGP/SGP4

EPOCH          = 2026-02-18T04:14:36.251808
MEAN_MOTION    = 15.79076630
ECCENTRICITY   = .0002261
INCLINATION    = 97.2826
RA_OF_ASC_NODE = 293.1779
ARG_OF_PERICENTER = 242.3374
MEAN_ANOMALY   = 117.7664

EPHEMERIS_TYPE = 0
CLASSIFICATION_TYPE = U
NORAD_CAT_ID   = 67535
ELEMENT_SET_NO = 999
REV_AT_EPOCH   = 550
BSTAR          = -.46626E-2
MEAN_MOTION_DOT = -.757418E-2
MEAN_MOTION_DDOT = 0

CCSDS_OMM_VERS = 2.0
CREATION_DATE  = 
ORIGINATOR     = 

OBJECT_NAME    = STARLINK-36572
OBJECT_ID      = 2026-014E
CENTER_NAME    = EARTH
REF_FRAME      = TEME
TIME_SYSTEM    = UTC
MEAN_ELEMENT_THEORY = SGP/SGP4

EPOCH          = 2026-02-18T03:30:41.378400
MEAN_MOTION    = 15.75272835
ECCENTRICITY   = .0001653
INCLINATION    = 97.2821
RA_OF_ASC_NODE = 293.0647
ARG_OF_PERICENTER = 95.3722
MEAN_ANOMALY   = 264.7732

EPHEMERIS_TYPE = 0
CLASSIFICATION_TYPE = U
NORAD_CAT_ID   = 67536
ELEMENT_SET_NO = 999
REV_AT_EPOCH   = 549
BSTAR          = .14375E-2
MEAN_MOTION_DOT = .220701E-2
MEAN_MOTION_DDOT = 0

CCSDS_OMM_VERS = 2.0
CREATION_DATE  = 
ORIGINATOR     = 

OBJECT_NAME    = STARLINK-36561
OBJECT_ID      = 2026-014F
CENTER_NAME    = EARTH
REF_FRAME      = TEME
TIME_SYSTEM    = UTC
MEAN_ELEMENT_THEORY = SGP/SGP4

EPOCH          = 2026-02-18T03:39:19.819008
MEAN_MOTION    = 15.75281281
ECCENTRICITY   = .0001814
INCLINATION    = 97.2848
RA_OF_ASC_NODE = 293.0562
ARG_OF_PERICENTER = 98.8379
MEAN_ANOMALY   = 261.3091

EPHEMERIS_TYPE = 0
CLASSIFICATION_TYPE = U
NORAD_CAT_ID   = 67537
ELEMENT_SET_NO = 999
REV_AT_EPOCH   = 549
BSTAR          = .1565E-2
MEAN_MOTION_DOT = .240962E-2
MEAN_MOTION_DDOT = 0

CCSDS_OMM_VERS = 2.0
CREATION_DATE  = 
ORIGINATOR     = 

OBJECT_NAME    = STARLINK-36397
OBJECT_ID      = 2026-014G
CENTER_NAME    = EARTH
REF_FRAME      = TEME
TIME_SYSTEM    = UTC
MEAN_ELEMENT_THEORY = SGP/SGP4

EPOCH          = 2026-02-18T03:44:55.229856
MEAN_MOTION    = 15.75275274
ECCENTRICITY   = .0001902
INCLINATION    = 97.2849
RA_OF_ASC_NODE = 293.0516
ARG_OF_PERICENTER = 65.1393
MEAN_ANOMALY   = 295.0070

EPHEMERIS_TYPE = 0
CLASSIFICATION_TYPE = U
NORAD_CAT_ID   = 67538
ELEMENT_SET_NO = 999
REV_AT_EPOCH   = 549
BSTAR          = .14547E-2
MEAN_MOTION_DOT = .22345E-2
MEAN_MOTION_DDOT = 0

CCSDS_OMM_VERS = 2.0
CREATION_DATE  = 
ORIGINATOR     = 

OBJECT_NAME    = STARLINK-36573
OBJECT_ID      = 2026-014H
CENTER_NAME    = EARTH
REF_FRAME      = TEME
TIME_SYSTEM    = UTC
MEAN_ELEMENT_THEORY = SGP/SGP4

EPOCH          = 2026-02-18T04:00:01.999584
MEAN_MOTION    = 15.75160870
ECCENTRICITY   = .0001309
INCLINATION    = 97.2840
RA_OF_ASC_NODE = 293.1590
ARG_OF_PERICENTER = 95.6281
MEAN_ANOMALY   = 190.1381

EPHEMERIS_TYPE = 0
CLASSIFICATION_TYPE = U
NORAD_CAT_ID   = 67539
ELEMENT_SET_NO = 999
REV_AT_EPOCH   = 555
BSTAR          = -.28335E-3
MEAN_MOTION_DOT = -.42131E-3
MEAN_MOTION_DDOT = 0

CCSDS_OMM_VERS = 2.0
CREATION_DATE  = 
ORIGINATOR     = 

OBJECT_NAME    = STARLINK-36585
OBJECT_ID      = 2026-014J
CENTER_NAME    = EARTH
REF_FRAME      = TEME
TIME_SYSTEM    = UTC
MEAN_ELEMENT_THEORY = SGP/SGP4

EPOCH          = 2026-02-18T03:33:14.007456
MEAN_MOTION    = 15.75289517
ECCENTRICITY   = .0001973
INCLINATION    = 97.2839
RA_OF_ASC_NODE = 293.0602
ARG_OF_PERICENTER = 57.7547
MEAN_ANOMALY   = 302.3909

EPHEMERIS_TYPE = 0
CLASSIFICATION_TYPE = U
NORAD_CAT_ID   = 67540
ELEMENT_SET_NO = 999
REV_AT_EPOCH   = 549
BSTAR          = .1741E-2
MEAN_MOTION_DOT = .269057E-2
MEAN_MOTION_DDOT = 0

CCSDS_OMM_VERS = 2.0
CREATION_DATE  = 
ORIGINATOR     = 

OBJECT_NAME    = STARLINK-36579
OBJECT_ID      = 2026-014K
CENTER_NAME    = EARTH
REF_FRAME      = TEME
TIME_SYSTEM    = UTC
MEAN_ELEMENT_THEORY = SGP/SGP4

EPOCH          = 2026-02-18T03:22:03.017280
MEAN_MOTION    = 15.75260863
ECCENTRICITY   = .0001702
INCLINATION    = 97.2823
RA_OF_ASC_NODE = 293.0711
ARG_OF_PERICENTER = 80.7322
MEAN_ANOMALY   = 279.4136

EPHEMERIS_TYPE = 0
CLASSIFICATION_TYPE = U
NORAD_CAT_ID   = 67541
ELEMENT_SET_NO = 999
REV_AT_EPOCH   = 549
BSTAR          = .1769E-2
MEAN_MOTION_DOT = .273187E-2
MEAN_MOTION_DDOT = 0

CCSDS_OMM_VERS = 2.0
CREATION_DATE  = 
ORIGINATOR     = 

OBJECT_NAME    = STARLINK-35934
OBJECT_ID      = 2026-014L
CENTER_NAME    = EARTH
REF_FRAME      = TEME
TIME_SYSTEM    = UTC
MEAN_ELEMENT_THEORY = SGP/SGP4

EPOCH          = 2026-02-18T04:00:01.999584
MEAN_MOTION    = 15.76424883
ECCENTRICITY   = .0001857
INCLINATION    = 97.2844
RA_OF_ASC_NODE = 293.1828
ARG_OF_PERICENTER = 115.8169
MEAN_ANOMALY   = 225.0144

EPHEMERIS_TYPE = 0
CLASSIFICATION_TYPE = U
NORAD_CAT_ID   = 67542
ELEMENT_SET_NO = 999
REV_AT_EPOCH   = 554
BSTAR          = -.1089E-1
MEAN_MOTION_DOT = -.1509371E-1
MEAN_MOTION_DDOT = 0

CCSDS_OMM_VERS = 2.0
CREATION_DATE  = 
ORIGINATOR     = 

OBJECT_NAME    = STARLINK-36581
OBJECT_ID      = 2026-014M
CENTER_NAME    = EARTH
REF_FRAME      = TEME
TIME_SYSTEM    = UTC
MEAN_ELEMENT_THEORY = SGP/SGP4

EPOCH          = 2026-02-18T04:00:01.999584
MEAN_MOTION    = 15.75228239
ECCENTRICITY   = .0001307
INCLINATION    = 97.2842
RA_OF_ASC_NODE = 293.1637
ARG_OF_PERICENTER = 103.1267
MEAN_ANOMALY   = 194.4669

EPHEMERIS_TYPE = 0
CLASSIFICATION_TYPE = U
NORAD_CAT_ID   = 67543
ELEMENT_SET_NO = 999
REV_AT_EPOCH   = 555
BSTAR          = -.37515E-3
MEAN_MOTION_DOT = -.55813E-3
MEAN_MOTION_DDOT = 0

CCSDS_OMM_VERS = 2.0
CREATION_DATE  = 
ORIGINATOR     = 

OBJECT_NAME    = STARLINK-36565
OBJECT_ID      = 2026-014N
CENTER_NAME    = EARTH
REF_FRAME      = TEME
TIME_SYSTEM    = UTC
MEAN_ELEMENT_THEORY = SGP/SGP4

EPOCH          = 2026-02-17T19:15:40.855680
MEAN_MOTION    = 15.75218459
ECCENTRICITY   = .00018033
INCLINATION    = 97.2855
RA_OF_ASC_NODE = 292.7692
ARG_OF_PERICENTER = 110.5071
MEAN_ANOMALY   = 249.6388

EPHEMERIS_TYPE = 0
CLASSIFICATION_TYPE = U
NORAD_CAT_ID   = 67544
ELEMENT_SET_NO = 999
REV_AT_EPOCH   = 544
BSTAR          = .94869784E-3
MEAN_MOTION_DOT = .143964E-2
MEAN_MOTION_DDOT = 0

CCSDS_OMM_VERS = 2.0
CREATION_DATE  = 
ORIGINATOR     = 

OBJECT_NAME    = STARLINK-36583
OBJECT_ID      = 2026-014P
CENTER_NAME    = EARTH
REF_FRAME      = TEME
TIME_SYSTEM    = UTC
MEAN_ELEMENT_THEORY = SGP/SGP4

EPOCH          = 2026-02-18T03:27:38.408256
MEAN_MOTION    = 15.75229344
ECCENTRICITY   = .0001689
INCLINATION    = 97.2826
RA_OF_ASC_NODE = 293.0656
ARG_OF_PERICENTER = 72.1392
MEAN_ANOMALY   = 288.0057

EPHEMERIS_TYPE = 0
CLASSIFICATION_TYPE = U
NORAD_CAT_ID   = 67545
ELEMENT_SET_NO = 999
REV_AT_EPOCH   = 549
BSTAR          = .99408E-3
MEAN_MOTION_DOT = .151053E-2
MEAN_MOTION_DDOT = 0

