STARLINK-36576          
1 67534U 26014C   26049.16668981 -.00045613  00000+0 -30623-3 0  9991
2 67534  97.2833 293.1422 0001373 101.5491 140.0524 15.75215582  5559
STARLINK-36574          
1 67535U 26014D   26049.17680847 -.00757418  00000+0 -46626-2 0  9990
2 67535  97.2826 293.1779 0002261 242.3374 117.7664 15.79076630  5502
STARLINK-36572          
1 67536U 26014E   26049.14631225  .00220701  00000+0  14375-2 0  9998
2 67536  97.2821 293.0647 0001653  95.3722 264.7732 15.75272835  5496
STARLINK-36561          
1 67537U 26014F   26049.15231272  .00240962  00000+0  15650-2 0  9996
2 67537  97.2848 293.0562 0001814  98.8379 261.3091 15.75281281  5493
STARLINK-36397          
1 67538U 26014G   26049.15619479  .00223450  00000+0  14547-2 0  9993
2 67538  97.2849 293.0516 0001902  65.1393 295.0070 15.75275274  5491
STARLINK-36573          
1 67539U 26014H   26049.16668981 -.00042131  00000+0 -28335-3 0  9995
2 67539  97.2840 293.1590 0001309  95.6281 190.1381 15.75160870  5553
STARLINK-36585          
1 67540U 26014J   26049.14807879  .00269057  00000+0  17410-2 0  9993
2 67540  97.2839 293.0602 0001973  57.7547 302.3909 15.75289517  5493
STARLINK-36579          
1 67541U 26014K   26049.14031270  .00273187  00000+0  17690-2 0  9997
2 67541  97.2823 293.0711 0001702  80.7322 279.4136 15.75260863  5494
STARLINK-35934          
1 67542U 26014L   26049.16668981 -.01509371  00000+0 -10890-1 0  9999
2 67542  97.2844 293.1828 0001857 115.8169 225.0144 15.76424883  5545
STARLINK-36581          
1 67543U 26014M   26049.16668981 -.00055813  00000+0 -37515-3 0  9991
2 67543  97.2842 293.1637 0001307 103.1267 194.4669 15.75228239  5559
STARLINK-36565          
1 67544U 26014N   26048.80255620  .00143964  00000+0  94870-3 0  9994
2 67544  97.2855 292.7692 0001803 110.5071 249.6388 15.75218459  5448
STARLINK-36583          
1 67545U 26014P   26049.14419454  .00151053  00000+0  99408-3 0  9990
2 67545  97.2826 293.0656 0001689  72.1392 288.0057 15.75229344  5492
